[{"OBJECT_NAME":"STARLINK-35676","OBJECT_ID":"2026-003M","EPOCH":"2026-03-09T11:27:27.535392","MEAN_MOTION":15.27573613,"ECCENTRICITY":0.0001337,"INCLINATION":43,"RA_OF_ASC_NODE":228.067,"ARG_OF_PERICENTER":268.6448,"MEAN_ANOMALY":91.425,"EPHEMERIS_TYPE":0,"CLASSIFICATION_TYPE":"U","NORAD_CAT_ID":67345,"ELEMENT_SET_NO":999,"REV_AT_EPOCH":879,"BSTAR":0.00043947376,"MEAN_MOTION_DOT":0.00011848,"MEAN_MOTION_DDOT":0},{"OBJECT_NAME":"OBJECT G","OBJECT_ID":"2026-023G","EPOCH":"2026-03-09T17:12:13.064832","MEAN_MOTION":15.23234695,"ECCENTRICITY":0.00237819,"INCLINATION":96.6246,"RA_OF_ASC_NODE":144.1318,"ARG_OF_PERICENTER":118.2502,"MEAN_ANOMALY":242.1141,"EPHEMERIS_TYPE":0,"CLASSIFICATION_TYPE":"U","NORAD_CAT_ID":67680,"ELEMENT_SET_NO":999,"REV_AT_EPOCH":484,"BSTAR":0.00060026958,"MEAN_MOTION_DOT":0.00014279,"MEAN_MOTION_DDOT":0}]
